S-NET B                 
1 43187U 18014H   22334.66490382  .00001852  00000+0  15911-3 0  9994
2 43187  97.6449 237.1015 0011580  99.4189 260.8344 14.98596417263808
S-NET A                 
1 43188U 18014J   22334.73197749  .00001855  00000+0  15936-3 0  9994
2 43188  97.6453 237.2407 0011591  99.3131 260.9403 14.98597001263816
S-NET C                 
1 43189U 18014K   22334.53273026  .00001822  00000+0  15667-3 0  9991
2 43189  97.6453 236.9580 0011642  99.8316 260.4222 14.98591334262335
FENGMANIU-1 (FMN-1)     
1 43192U 18015A   22335.05967235  .00057280  00000+0  95992-3 0  9994
2 43192  97.5516 126.1876 0009074 159.7384 337.9895 15.51615248269146
SHAONIAN XING           
1 43199U 18015H   22335.10229428  .00024668  00000+0  59428-3 0  9990
2 43199  97.5328 119.3267 0012054 164.8507 308.1747 15.41174944269045
LUOJIA-1 01             
1 43485U 18048B   22335.13985350  .00001083  00000+0  15799-3 0  9999
2 43485  97.9241  53.6648 0011684  28.0129 332.1723 14.77762200242489
SURFSAT                 
1 43614U 18070B   22334.73909487  .00107769  00000+0  69276-3 0  9997
2 43614  93.0012 169.9164 0008710  67.6755 292.5442 15.75856195237038
CP7 (DAVE)              
1 43615U 18070C   22334.79711203  .00083736  00000+0  65648-3 0  9997
2 43615  93.0005 169.5328 0009702  72.7516 287.4816 15.71251921236975
CZ-4B R/B               
1 43656U 18081B   22334.69214241  .00000055  00000+0  34088-4 0  9991
2 43656  99.4208 122.1821 0208476  27.0735 334.1138 14.30660746214126
CUBEBEL-1 (BSUSAT-1)    
1 43666U 18083E   22335.15595780  .00011654  00000+0  44583-3 0  9993
2 43666  97.4062   2.1689 0013853 102.7463 328.6543 15.26645832226883
CHANGSHAGAOXIN (TY 4-01)
1 43669U 18083H   22335.25137941  .00009668  00000+0  39170-3 0  9996
2 43669  97.4017 357.7198 0010753 101.0747 324.6295 15.24814263226696
TEN-KOH                 
1 43677U 18084G   22334.81083388  .00001193  00000+0  12445-3 0  9993
2 43677  97.9866 106.6598 0016887  84.1395 276.1747 14.91620834222478
DIWATA-2B               
1 43678U 18084H   22334.80360428  .00000826  00000+0  86153-4 0  9996
2 43678  97.9935 110.2975 0011079  96.2818 263.9675 14.92511441222667
STARS-AO                
1 43679U 18084J   22334.36495758  .00001709  00000+0  16408-3 0  9999
2 43679  97.9969 112.2425 0009872 100.6752 259.5580 14.94429213222711
AUTCUBE 2               
1 43681U 18084K   22335.12920442  .00002069  00000+0  20144-3 0  9992
2 43681  97.9935 111.4063 0010424  94.6064 265.6346 14.93630079222721
IRVINE01                
1 43693U 18088D   22334.13484571  .00092572  00000+0  12046-2 0  9996
2 43693  85.0224 197.2318 0004254 151.3031 208.8466 15.58433465225803
ES'HAIL 2               
1 43700U 18090A   22334.74172486  .00000145  00000+0  00000+0 0  9993
2 43700   0.0151 296.8493 0001166 335.2333  90.3383  1.00271755 14694
FACSAT-1                
1 43721U 18096C   22335.09365922  .00027691  00000+0  59783-3 0  9991
2 43721  97.3375  55.4325 0012335 167.8920 311.4899 15.44426532223619
CENTAURI-2              
1 43722U 18096D   22334.75807432  .00051352  00000+0  84849-3 0  9993
2 43722  97.3416  58.3768 0010150 164.9886 195.1670 15.52026299223744
3CAT-1                  
1 43728U 18096K   22334.19440699  .00048050  00000+0  81190-3 0  9992
2 43728  97.3451  58.5526 0010034 172.2565 187.8844 15.51414027223694
INNOSAT-2               
1 43738U 18096V   22335.15178183  .00963800  48586-3  15275-2 0  9990
2 43738  97.3478  70.7820 0007721 253.5766 190.9041 16.03852549224544
REAKTOR HELLO WORLD     
1 43743U 18096AA  22334.19300599  .00016457  00000+0  42667-3 0  9995
2 43743  97.3406  53.7424 0013555 178.4570 181.6720 15.38997786223407
ELYSIUM STAR 2 & LFF    
1 43760U 18099C   22334.76375083  .00004781  00000+0  38307-3 0  9993
2 43760  97.6093  39.7650 0008961  70.8411 289.3782 15.00567465218044
2018-099D               
1 43761U 18099D   22335.00971414  .00001843  00000+0  16747-3 0  9992
2 43761  97.6030  37.1527 0015718  73.4576 286.8333 14.96348805217929
AISTECHSAT 2            
1 43768U 18099L   22335.11011472  .00001925  00000+0  17437-3 0  9998
2 43768  97.5976  35.6743 0012328  72.8585 287.3985 14.96466993217607
FOX-1CLIFF (AO-95)      
1 43770U 18099N   22334.64487349  .00002450  00000+0  21545-3 0  9997
2 43770  97.6013  36.5903 0015059  80.4470 279.8453 14.97347528217871
RANGE-A                 
1 43772U 18099Q   22334.62387926  .00002440  00000+0  20970-3 0  9997
2 43772  97.6150  38.6758 0014604  65.7990 294.4757 14.98269249217902
RANGE-B                 
1 43773U 18099R   22334.62367401  .00001271  00000+0  11607-3 0  9992
2 43773  97.5939  35.1599 0014318  68.0010 292.2731 14.96696890217848
2018-099T               
1 43775U 18099T   22334.62363595  .00000922  00000+0  85771-4 0  9990
2 43775  97.6019  36.5435 0015560  71.8323 288.4591 14.96576835217851
MOVE-II                 
1 43780U 18099Y   22335.10005194  .00003898  00000+0  32362-3 0  9990
2 43780  97.6056  38.6364 0012364  70.3399 289.9157 14.99281576218019
SNUSAT-2                
1 43782U 18099AA  22334.40923102  .00002288  00000+0  20109-3 0  9990
2 43782  97.6034  36.8640 0013848  67.7530 292.5160 14.97458566217868
SNUGLITE                
1 43784U 18099AC  22334.75310712  .00001791  00000+0  15714-3 0  9991
2 43784  97.5989  36.8224 0015717  71.6332 288.6598 14.97761649217946
ITASAT 1                
1 43786U 18099AE  22334.62780104  .00001526  00000+0  13599-3 0  9990
2 43786  97.6047  37.5739 0015744  72.0986 288.1952 14.97374110217912
KAZSCISAT-1             
1 43787U 18099AF  22334.62166742  .00002871  00000+0  24058-3 0  9993
2 43787  97.5976  36.9490 0014252  64.1893 296.0799 14.99109368217989
EAGLET-I                
1 43790U 18099AJ  22334.64428920  .00001534  00000+0  13661-3 0  9991
2 43790  97.6037  38.1329 0014016  76.1240 284.1541 14.97395511217656
ESEO                    
1 43792U 18099AL  22334.65377570  .00001308  00000+0  11962-3 0  9999
2 43792  97.5990  37.0895 0014482  74.8203 285.4620 14.96584917217686
CSIM-FD                 
1 43793U 18099AM  22334.73259704  .00004823  00000+0  39226-3 0  9995
2 43793  97.6078  39.3476 0015683  70.8166 289.4753 14.99923412217796
ASTROCAST 0.1           
1 43798U 18099AS  22334.63973231  .00003167  00000+0  26654-3 0  9998
2 43798  97.6048  38.9050 0011830  51.5242 308.7040 14.98889342217990
JY1SAT (JO-97)          
1 43803U 18099AX  22334.64768602  .00002722  00000+0  23441-3 0  9997
2 43803  97.6000  37.4135 0015365  72.5999 287.6902 14.98075822217949
SUOMI-100               
1 43804U 18099AY  22334.61209137  .00002314  00000+0  20071-3 0  9991
2 43804  97.6020  37.2622 0016248  71.7161 288.5828 14.97932279217948
AL-FARABI 2             
1 43805U 18099AZ  22334.85689404  .00003657  00000+0  30756-3 0  9999
2 43805  97.6015  38.2029 0015353  72.6090 287.6790 14.98786196218015
CENTAURI-1              
1 43809U 18099BD  22334.81866910  .00001269  00000+0  11373-3 0  9999
2 43809  97.6026  37.7142 0016202  72.2073 288.0915 14.97440577217665
CHOMPTT                 
1 43855U 18104G   22334.88394166  .00010492  00000+0  35144-3 0  9993
2 43855  85.0319 299.9528 0013581 353.4772   6.6295 15.30695837220151
DAVINCI                 
1 43857U 18104J   22334.35402775  .00085037  00000+0  12291-2 0  9997
2 43857  85.0183 295.4644 0008714  44.6062 315.5898 15.55589806220465
UWE-4                   
1 43880U 18111E   22334.72478401  .00002731  00000+0  22856-3 0  9990
2 43880  97.6558 238.1126 0011528 119.9625 240.2744 14.99234960214601
ZACUBE-2                
1 43907U 18111AH  22334.93671490  .00009391  00000+0  31691-3 0  9992
2 43907  97.1647 215.3743 0017326 201.6818 253.9993 15.30757515218739
MICRODRAGON             
1 43935U 19003D   22334.75989992  .00006783  00000+0  24960-3 0  9996
2 43935  97.1234 357.4591 0014446 308.3994  51.5948 15.28077237215070
AOBA VELOX-IV           
1 43940U 19003J   22334.55423415  .00035647  00000+0  67241-3 0  9993
2 43940  97.1094   6.3958 0010947 259.4955 100.5063 15.48332054215720
M6P                     
1 44109U 19018AF  22334.82265006  .00023651  00000+0  46053-3 0  9997
2 44109  97.3870  61.3150 0039217 243.9182 115.8029 15.46701825205104
FORMOSAT 7-4            
1 44350U 19036M   22334.62952262  .00004327  00000+0  23366-3 0  9991
2 44350  24.0011 319.6732 0005277 269.5830  90.4069 15.10704374188615
PAINANI 1               
1 44365U 19037A   22334.60480066  .00143117  00000+0  81142-3 0  9991
2 44365  44.9868 134.9376 0011899 267.3366  92.6174 15.77821933193229
METEOR-M2 2             
1 44387U 19038A   22334.85183153  .00000004  00000+0  21018-4 0  9994
2 44387  98.7470 294.4762 0001876 122.2580 237.8791 14.23732283177084
VDNH-80                 
1 44392U 19038G   22334.82103929  .00009554  00000+0  44243-3 0  9993
2 44392  97.6547 306.5228 0016036 279.0626 128.2085 15.20216343188095
D-STAR ONE (LIGHTSAT)   
1 44393U 19038H   22334.68324554  .00009563  00000+0  44073-3 0  9998
2 44393  97.6565 306.3105 0016011 279.9423  80.0005 15.20382189188263
AMGU-1 (AMURSAT)        
1 44394U 19038J   22334.91267027  .00010926  00000+0  49554-3 0  9990
2 44394  97.6535 306.5576 0015673 279.6043  80.3422 15.20900679188304
DOT-1                   
1 44399U 19038P   22334.85107114  .00006103  00000+0  30926-3 0  9993
2 44399  97.6619 304.7496 0020011 287.1327  72.7715 15.17182553188156
SOKRAT                  
1 44404U 19038U   22334.40456777  .00010194  00000+0  46626-3 0  9992
2 44404  97.6554 305.6420 0016066 283.3376  76.6067 15.20625174188209
LUCKY-7                 
1 44406U 19038W   22334.86800402  .00006895  00000+0  34301-3 0  9992
2 44406  97.6605 305.2338 0019568 277.9096  81.9916 15.17783755188185
D-STAR ONE (EXOCONNECT) 
1 44410U 19038AA  22334.64622783  .00017890  00000+0  70534-3 0  9992
2 44410  97.6485 307.5367 0013344 275.2793  84.6921 15.25554509188373
